{"type": "FeatureCollection", "features": [ {"type": "Feature", "properties": {"norad_id": 54234, "name": "NOAA 21 (JPSS-2)", "group": "weather", "lat": -81.2397998089896, "lon": 20.377285307155162, "alt_km": 834.9855293275496, "timestamp": "2025-12-17T15:50:09.419748+00:00", "meta": {"OBJECT_NAME": "NOAA 21 (JPSS-2)", "OBJECT_ID": "2022-150A", "EPOCH": "2025-12-17T07:48:10.291104", "MEAN_MOTION": 14.1952558, "ECCENTRICITY": 0.00020284, "INCLINATION": 98.7467, "RA_OF_ASC_NODE": 287.5762, "ARG_OF_PERICENTER": 29.154, "MEAN_ANOMALY": 330.9749, "EPHEMERIS_TYPE": 0, "CLASSIFICATION_TYPE": "U", "NORAD_CAT_ID": 54234, "ELEMENT_SET_NO": 999, "REV_AT_EPOCH": 16074, "BSTAR": 4.6371737e-05, "MEAN_MOTION_DOT": 5.4e-07, "MEAN_MOTION_DDOT": 0}, "tle": {"line1": "1 54234U 22150A   25351.32511911  .00000054  00000+0  46372-4 0  9991", "line2": "2 54234  98.7467 287.5762 0002028  29.1540 330.9749 14.19525580160744"}}, "geometry": {"type": "Point", "coordinates": [20.377285307155162, -81.2397998089896]}}, {"type": "Feature", "properties": {"norad_id": 54743, "name": "METEOSAT-12 (MTG-I1)", "group": "weather", "lat": -0.611016671279197, "lon": -36.21506739282262, "alt_km": 35783.42617946104, "timestamp": "2025-12-17T15:50:09.419762+00:00", "meta": {"OBJECT_NAME": "METEOSAT-12 (MTG-I1)", "OBJECT_ID": "2022-170C", "EPOCH": "2025-12-17T04:45:49.288896", "MEAN_MOTION": 1.002701, "ECCENTRICITY": 0.00015142, "INCLINATION": 0.6914, "RA_OF_ASC_NODE": 24.3422, "ARG_OF_PERICENTER": 239.2541, "MEAN_ANOMALY": 253.6472, "EPHEMERIS_TYPE": 0, "CLASSIFICATION_TYPE": "U", "NORAD_CAT_ID": 54743, "ELEMENT_SET_NO": 999, "REV_AT_EPOCH": 1115, "BSTAR": 0, "MEAN_MOTION_DOT": 1.7e-07, "MEAN_MOTION_DDOT": 0}, "tle": {"line1": "1 54743U 22170C   25351.19848714  .00000017  00000+0  00000+0 0  9999", "line2": "2 54743   0.6914  24.3422 0001514 239.2541 253.6472  1.00270100 11157"}}, "geometry": {"type": "Point", "coordinates": [-36.21506739282262, -0.611016671279197]}}, {"type": "Feature", "properties": {"norad_id": 55973, "name": "TIANMU-1 03", "group": "weather", "lat": -3.54453853233091, "lon": -26.019400825298707, "alt_km": 448.59923538501425, "timestamp": "2025-12-17T15:50:09.419777+00:00", "meta": {"OBJECT_NAME": "TIANMU-1 03", "OBJECT_ID": "2023-039A", "EPOCH": "2025-12-17T08:48:32.930784", "MEAN_MOTION": 15.41058669, "ECCENTRICITY": 0.00041898, "INCLINATION": 97.5101, "RA_OF_ASC_NODE": 154.1479, "ARG_OF_PERICENTER": 48.0796, "MEAN_ANOMALY": 312.0807, "EPHEMERIS_TYPE": 0, "CLASSIFICATION_TYPE": "U", "NORAD_CAT_ID": 55973, "ELEMENT_SET_NO": 999, "REV_AT_EPOCH": 15277, "BSTAR": 0.00029805236, "MEAN_MOTION_DOT": 0.00012234, "MEAN_MOTION_DDOT": 0}, "tle": {"line1": "1 55973U 23039A   25351.36704781  .00012234  00000+0  29805-3 0  9996", "line2": "2 55973  97.5101 154.1479 0004189  48.0796 312.0807 15.41058669152779"}}, "geometry": {"type": "Point", "coordinates": [-26.019400825298707, -3.54453853233091]}}, {"type": "Feature", "properties": {"norad_id": 55974, "name": "TIANMU-1 04", "group": "weather", "lat": -56.02461673670681, "lon": 164.91693051377692, "alt_km": 449.51895264929317, "timestamp": "2025-12-17T15:50:09.419787+00:00", "meta": {"OBJECT_NAME": "TIANMU-1 04", "OBJECT_ID": "2023-039B", "EPOCH": "2025-12-17T08:17:29.717376", "MEAN_MOTION": 15.41397071, "ECCENTRICITY": 0.00048523, "INCLINATION": 97.5033, "RA_OF_ASC_NODE": 153.3148, "ARG_OF_PERICENTER": 42.3228, "MEAN_ANOMALY": 317.8392, "EPHEMERIS_TYPE": 0, "CLASSIFICATION_TYPE": "U", "NORAD_CAT_ID": 55974, "ELEMENT_SET_NO": 999, "REV_AT_EPOCH": 15277, "BSTAR": 0.00031012399, "MEAN_MOTION_DOT": 0.00012879, "MEAN_MOTION_DDOT": 0}, "tle": {"line1": "1 55974U 23039B   25351.34548284  .00012879  00000+0  31012-3 0  9997", "line2": "2 55974  97.5033 153.3148 0004852  42.3228 317.8392 15.41397071152777"}}, "geometry": {"type": "Point", "coordinates": [164.91693051377692, -56.02461673670681]}}, {"type": "Feature", "properties": {"norad_id": 55975, "name": "TIANMU-1 05", "group": "weather", "lat": -31.331238041766706, "lon": 158.73551953139696, "alt_km": 449.5377895442716, "timestamp": "2025-12-17T15:50:09.419798+00:00", "meta": {"OBJECT_NAME": "TIANMU-1 05", "OBJECT_ID": "2023-039C", "EPOCH": "2025-12-17T08:10:50.931264", "MEAN_MOTION": 15.41014901, "ECCENTRICITY": 0.00042451, "INCLINATION": 97.508, "RA_OF_ASC_NODE": 153.8027, "ARG_OF_PERICENTER": 65.8693, "MEAN_ANOMALY": 294.2996, "EPHEMERIS_TYPE": 0, "CLASSIFICATION_TYPE": "U", "NORAD_CAT_ID": 55975, "ELEMENT_SET_NO": 999, "REV_AT_EPOCH": 15275, "BSTAR": 0.00030750342, "MEAN_MOTION_DOT": 0.00012607, "MEAN_MOTION_DDOT": 0}, "tle": {"line1": "1 55975U 23039C   25351.34086726  .00012607  00000+0  30750-3 0  9993", "line2": "2 55975  97.5080 153.8027 0004245  65.8693 294.2996 15.41014901152757"}}, "geometry": {"type": "Point", "coordinates": [158.73551953139696, -31.331238041766706]}}, {"type": "Feature", "properties": {"norad_id": 55976, "name": "TIANMU-1 06", "group": "weather", "lat": -66.68761522557605, "lon": 172.42391053098427, "alt_km": 450.94221629939784, "timestamp": "2025-12-17T15:50:09.419808+00:00", "meta": {"OBJECT_NAME": "TIANMU-1 06", "OBJECT_ID": "2023-039D", "EPOCH": "2025-12-17T08:20:24.260064", "MEAN_MOTION": 15.41448709, "ECCENTRICITY": 0.0004535, "INCLINATION": 97.509, "RA_OF_ASC_NODE": 154.2784, "ARG_OF_PERICENTER": 60.334, "MEAN_ANOMALY": 299.8358, "EPHEMERIS_TYPE": 0, "CLASSIFICATION_TYPE": "U", "NORAD_CAT_ID": 55976, "ELEMENT_SET_NO": 999, "REV_AT_EPOCH": 15277, "BSTAR": 0.00030611995, "MEAN_MOTION_DOT": 0.00012733, "MEAN_MOTION_DDOT": 0}, "tle": {"line1": "1 55976U 23039D   25351.34750301  .00012733  00000+0  30612-3 0  9998", "line2": "2 55976  97.5090 154.2784 0004535  60.3340 299.8358 15.41448709152777"}}, "geometry": {"type": "Point", "coordinates": [172.42391053098427, -66.68761522557605]}}, {"type": "Feature", "properties": {"norad_id": 56232, "name": "FENGYUN 3G", "group": "weather", "lat": -49.97215058213333, "lon": 112.0720923942204, "alt_km": 410.63200964311, "timestamp": "2025-12-17T15:50:09.419819+00:00", "meta": {"OBJECT_NAME": "FENGYUN 3G", "OBJECT_ID": "2023-055A", "EPOCH": "2025-12-17T06:57:46.541664", "MEAN_MOTION": 15.53917827, "ECCENTRICITY": 0.00093563, "INCLINATION": 49.9924, "RA_OF_ASC_NODE": 203.9687, "ARG_OF_PERICENTER": 169.2779, "MEAN_ANOMALY": 190.839, "EPHEMERIS_TYPE": 0, "CLASSIFICATION_TYPE": "U", "NORAD_CAT_ID": 56232, "ELEMENT_SET_NO": 999, "REV_AT_EPOCH": 15173, "BSTAR": 0.00039266245, "MEAN_MOTION_DOT": 0.00025481, "MEAN_MOTION_DDOT": 0}, "tle": {"line1": "1 56232U 23055A   25351.29012201  .00025481  00000+0  39266-3 0  9994", "line2": "2 56232  49.9924 203.9687 0009356 169.2779 190.8390 15.53917827151731"}}, "geometry": {"type": "Point", "coordinates": [112.0720923942204, -49.97215058213333]}}, {"type": "Feature", "properties": {"norad_id": 57166, "name": "METEOR-M2 3", "group": "weather", "lat": -73.40933553876755, "lon": -165.56267413078237, "alt_km": 819.4464121307665, "timestamp": "2025-12-17T15:50:09.419830+00:00", "meta": {"OBJECT_NAME": "METEOR-M2 3", "OBJECT_ID": "2023-091A", "EPOCH": "2025-12-17T07:53:34.886400", "MEAN_MOTION": 14.2402658, "ECCENTRICITY": 0.00036431, "INCLINATION": 98.6374, "RA_OF_ASC_NODE": 44.788, "ARG_OF_PERICENTER": 355.3483, "MEAN_ANOMALY": 4.7662, "EPHEMERIS_TYPE": 0, "CLASSIFICATION_TYPE": "U", "NORAD_CAT_ID": 57166, "ELEMENT_SET_NO": 999, "REV_AT_EPOCH": 12863, "BSTAR": 1.8607976e-05, "MEAN_MOTION_DOT": -1e-08, "MEAN_MOTION_DDOT": 0}, "tle": {"line1": "1 57166U 23091A   25351.32887600 -.00000001  00000+0  18608-4 0  9998", "line2": "2 57166  98.6374  44.7880 0003643 355.3483   4.7662 14.24026580128639"}}, "geometry": {"type": "Point", "coordinates": [-165.56267413078237, -73.40933553876755]}}, {"type": "Feature", "properties": {"norad_id": 57399, "name": "TIANMU-1 07", "group": "weather", "lat": 55.9551367573825, "lon": -127.68010774496642, "alt_km": 473.8971332159135, "timestamp": "2025-12-17T15:50:09.419843+00:00", "meta": {"OBJECT_NAME": "TIANMU-1 07", "OBJECT_ID": "2023-101A", "EPOCH": "2025-12-17T07:26:27.673728", "MEAN_MOTION": 15.28137251, "ECCENTRICITY": 0.00054459, "INCLINATION": 97.2877, "RA_OF_ASC_NODE": 41.0594, "ARG_OF_PERICENTER": 70.1337, "MEAN_ANOMALY": 290.0489, "EPHEMERIS_TYPE": 0, "CLASSIFICATION_TYPE": "U", "NORAD_CAT_ID": 57399, "ELEMENT_SET_NO": 999, "REV_AT_EPOCH": 13385, "BSTAR": 0.00022055074, "MEAN_MOTION_DOT": 5.979e-05, "MEAN_MOTION_DDOT": 0}, "tle": {"line1": "1 57399U 23101A   25351.31004252  .00005979  00000+0  22055-3 0  9999", "line2": "2 57399  97.2877  41.0594 0005445  70.1337 290.0489 15.28137251133854"}}, "geometry": {"type": "Point", "coordinates": [-127.68010774496642, 55.9551367573825]}}, {"type": "Feature", "properties": {"norad_id": 57400, "name": "TIANMU-1 08", "group": "weather", "lat": -54.806971562149755, "lon": 51.65184958383421, "alt_km": 491.43164357032674, "timestamp": "2025-12-17T15:50:09.419854+00:00", "meta": {"OBJECT_NAME": "TIANMU-1 08", "OBJECT_ID": "2023-101B", "EPOCH": "2025-12-17T08:13:13.925856", "MEAN_MOTION": 15.28120642, "ECCENTRICITY": 0.00073791, "INCLINATION": 97.2864, "RA_OF_ASC_NODE": 40.8885, "ARG_OF_PERICENTER": 71.1477, "MEAN_ANOMALY": 289.0562, "EPHEMERIS_TYPE": 0, "CLASSIFICATION_TYPE": "U", "NORAD_CAT_ID": 57400, "ELEMENT_SET_NO": 999, "REV_AT_EPOCH": 13385, "BSTAR": 0.00022070247, "MEAN_MOTION_DOT": 5.982e-05, "MEAN_MOTION_DDOT": 0}, "tle": {"line1": "1 57400U 23101B   25351.34252229  .00005982  00000+0  22070-3 0  9995", "line2": "2 57400  97.2864  40.8885 0007379  71.1477 289.0562 15.28120642133853"}}, "geometry": {"type": "Point", "coordinates": [51.65184958383421, -54.806971562149755]}}]}